[{"OBJECT_NAME":"ION SCV-015","OBJECT_ID":"2023-185H","EPOCH":"2026-03-09T22:36:51.209568","MEAN_MOTION":15.3163624,"ECCENTRICITY":0.00109059,"INCLINATION":97.5772,"RA_OF_ASC_NODE":155.3582,"ARG_OF_PERICENTER":92.3805,"MEAN_ANOMALY":267.8685,"EPHEMERIS_TYPE":0,"CLASSIFICATION_TYPE":"U","NORAD_CAT_ID":58469,"ELEMENT_SET_NO":999,"REV_AT_EPOCH":12588,"BSTAR":0.00030895808,"MEAN_MOTION_DOT":9.376e-5,"MEAN_MOTION_DDOT":0},{"OBJECT_NAME":"STARLINK-31898","OBJECT_ID":"2024-100W","EPOCH":"2026-03-09T05:05:54.486816","MEAN_MOTION":15.27580842,"ECCENTRICITY":0.00013804,"INCLINATION":43.003,"RA_OF_ASC_NODE":124.655,"ARG_OF_PERICENTER":267.8418,"MEAN_ANOMALY":92.2276,"EPHEMERIS_TYPE":0,"CLASSIFICATION_TYPE":"U","NORAD_CAT_ID":59905,"ELEMENT_SET_NO":999,"REV_AT_EPOCH":10111,"BSTAR":8.4768829e-5,"MEAN_MOTION_DOT":2.071e-5,"MEAN_MOTION_DDOT":0}]
